[
  {
    "type": "node",
    "id": 445855212,
    "lat": 44.8543334,
    "lon": -0.5721093,
    "tags": {
      "amenity": "fast_food",
      "contact:city": "Bordeaux",
      "contact:housenumber": "62",
      "contact:postcode": "33300",
      "contact:street": "Cours Portal",
      "cuisine": "burger",
      "name": "Mythic Burger"
    }
  },
  {
    "type": "node",
    "id": 1379321153,
    "lat": 44.4585512,
    "lon": -0.3709536,
    "tags": {
      "amenity": "restaurant",
      "contact:facebook": "https://www.facebook.com/pages/Le-m%C3%A9di%C3%A9val/376340439124576",
      "name": "Le Médiéval",
      "phone": "+33 5 56 25 38 15",
      "source": "local_knowledge"
    }
  },
  {
    "type": "node",
    "id": 279245940,
    "lat": 44.7946229,
    "lon": -0.6199622,
    "tags": {
      "amenity": "restaurant",
      "name": "Cafétéria Universitaire Le Veracruz",
      "wheelchair": "yes"
    }
  },
  {
    "type": "node",
    "id": 279246491,
    "lat": 44.7957091,
    "lon": -0.6159515,
    "tags": {
      "amenity": "restaurant",
      "name": "Cafétéria Universitaire Le Sirtaki",
      "opening_hours": "Mo-Th 07:30-18:00, Fr 07:30-17:30",
      "takeaway": "no"
    }
  },
  {
    "type": "node",
    "id": 317941817,
    "lat": 44.8276230,
    "lon": -0.5855196,
    "tags": {
      "amenity": "fast_food",
      "cuisine": "pizza",
      "name": "Aux P'tits Délices"
    }
  },
  {
    "type": "node",
    "id": 344629984,
    "lat": 44.8355673,
    "lon": -0.6771122,
    "tags": {
      "amenity": "restaurant",
      "created_by": "Potlatch 0.10f",
      "name": "Buffalo Grill"
    }
  },
  {
    "type": "node",
    "id": 352964326,
    "lat": 44.7971389,
    "lon": -0.5286241,
    "tags": {
      "amenity": "restaurant",
      "cuisine": "seafood",
      "name": "Le Merci"
    }
  },
  {
    "type": "node",
    "id": 352975712,
    "lat": 44.8313255,
    "lon": -0.6781898,
    "tags": {
      "amenity": "restaurant",
      "brand": "Courtepaille",
      "brand:website": "http://www.courtepaille.com",
      "brand:wikidata": "Q3116688",
      "brand:wikipedia": "fr:Grill Courtepaille",
      "cuisine": "steak_house",
      "name": "Courtepaille",
      "opening_hours": "Mo-Su 11:30-23:00"
    }
  },
  {
    "type": "node",
    "id": 352977370,
    "lat": 44.8309846,
    "lon": -0.6798978,
    "tags": {
      "amenity": "restaurant",
      "cuisine": "seafood",
      "name": "La Criée"
    }
  },
  {
    "type": "node",
    "id": 401786576,
    "lat": 44.8123033,
    "lon": -0.5901944,
    "tags": {
      "amenity": "restaurant",
      "cuisine": "american",
      "name": "Edwood Cafe",
      "wheelchair": "yes"
    }
  },
  {
    "type": "node",
    "id": 409132559,
    "lat": 44.7958238,
    "lon": -0.6677679,
    "tags": {
      "amenity": "fast_food",
      "cuisine": "pizza",
      "name": "Royal Pizz'"
    }
  },
  {
    "type": "node",
    "id": 444755898,
    "lat": 44.8559651,
    "lon": -0.5671860,
    "tags": {
      "amenity": "restaurant",
      "name": "Chai d'Art"
    }
  },
  {
    "type": "node",
    "id": 445855212,
    "lat": 44.8543334,
    "lon": -0.5721093,
    "tags": {
      "amenity": "fast_food",
      "contact:city": "Bordeaux",
      "contact:housenumber": "62",
      "contact:postcode": "33300",
      "contact:street": "Cours Portal",
      "cuisine": "burger",
      "name": "Mythic Burger"
    }
  },
  {
    "type": "node",
    "id": 445864839,
    "lat": 44.8528064,
    "lon": -0.5679579,
    "tags": {
      "amenity": "restaurant",
      "contact:phone": "+33557876082",
      "contact:website": "http://www.bistrotchartrons.fr",
      "cuisine": "regional",
      "name": "Bistrot Chartrons"
    }
  },
  {
    "type": "node",
    "id": 446355810,
    "lat": 44.8488384,
    "lon": -0.5708629,
    "tags": {
      "amenity": "restaurant",
      "name": "Le K Baroque",
      "wheelchair": "yes"
    }
  },
  {
    "type": "node",
    "id": 446355820,
    "lat": 44.8525925,
    "lon": -0.5681614,
    "tags": {
      "amenity": "restaurant",
      "name": "Casa Latina",
      "wheelchair": "limited"
    }
  },
  {
    "type": "node",
    "id": 447976441,
    "lat": 44.8440041,
    "lon": -0.5708803,
    "tags": {
      "amenity": "restaurant",
      "name": "La Belle Époque"
    }
  },
  {
    "type": "node",
    "id": 471226845,
    "lat": 44.5836700,
    "lon": -0.0393368,
    "tags": {
      "amenity": "restaurant",
      "name": "Les Fontaines"
    }
  },
  {
    "type": "node",
    "id": 495072566,
    "lat": 45.0189882,
    "lon": -0.3237556,
    "tags": {
      "amenity": "restaurant",
      "name": "La Fiesta"
    }
  },
  {
    "type": "node",
    "id": 500351274,
    "lat": 44.8358136,
    "lon": -0.5699806,
    "tags": {
      "amenity": "restaurant",
      "cuisine": "crepe",
      "name": "Au Teulère de Brest"
    }
  }
]